NORAD_CAT_ID,OBJECT_NAME,OBJECT_TYPE,EPOCH,MEAN_MOTION,ECCENTRICITY,INCLINATION,RA_OF_ASC_NODE,ARG_OF_PERICENTER,MEAN_ANOMALY,BSTAR,MEAN_MOTION_DOT,MEAN_MOTION_DDOT,TLE_LINE0,TLE_LINE1,TLE_LINE2,SEMIMAJOR_AXIS,PERIOD,APOGEE,PERIGEE,DECAYED
52491.0,STARLINK-3908,PAYLOAD,2022-12-05 00:53:53,15.08848168,0.0002841,53.2205,354.1721,24.1585,335.954,8.986600000000001e-05,1.142e-05,0.0,0 STARLINK-3908,1 52491U 22049AS  22339.03742258  .00001142  00000-0  89866-4 0  9997,2 52491  53.2205 354.1721 0002841  24.1585 335.9540 15.08848168 32804,6917.855,95.437,541.686,537.755,0.0
52491.0,STARLINK-3908,PAYLOAD,2022-12-05 07:15:26,15.08841535,0.0002826,53.2205,352.9826,24.0686,336.0437,0.00013155,1.806e-05,0.0,0 STARLINK-3908,1 52491U 22049AS  22339.30238612  .00001806  00000-0  13155-3 0  9995,2 52491  53.2205 352.9826 0002826  24.0686 336.0437 15.08841535 32842,6917.876,95.437,541.696,537.786,0.0
52491.0,STARLINK-3908,PAYLOAD,2022-12-05 18:23:07,15.08851479,0.0002865,53.2205,350.9014,24.1303,335.9823,9.0123e-05,1.147e-05,0.0,0 STARLINK-3908,1 52491U 22049AS  22339.76606011  .00001147  00000-0  90123-4 0  9996,2 52491  53.2205 350.9014 0002865  24.1303 335.9823 15.08851479 32754,6917.845,95.437,541.692,537.7280000000002,0.0
52491.0,STARLINK-3908,PAYLOAD,2022-12-06 11:52:22,15.08840786,0.0002804,53.2207,347.6306,21.6184,338.4926,9.0624e-05,1.154e-05,0.0,0 STARLINK-3908,1 52491U 22049AS  22340.49470504  .00001154  00000-0  90624-4 0  9998,2 52491  53.2207 347.6306 0002804  21.6184 338.4926 15.08840786 33027,6917.878000000002,95.438,541.683,537.803,0.0
52491.0,STARLINK-3908,PAYLOAD,2022-12-06 18:13:56,15.08829648,0.0002885,53.2193,346.4407,26.5915,333.5224,-4.1742e-05,-9.53e-06,0.0,0 STARLINK-3908,1 52491U 22049AS  22340.75967666 -.00000953  00000-0 -41742-4 0  9992,2 52491  53.2193 346.4407 0002885  26.5915 333.5224 15.08829648 32902,6917.9119999999975,95.438,541.773,537.781,0.0
52491.0,STARLINK-3908,PAYLOAD,2022-12-07 11:43:10,15.08837398,0.0002777,53.2206,343.1695,26.3574,333.7559,2.9437e-05,1.8e-06,0.0,0 STARLINK-3908,1 52491U 22049AS  22341.48831268  .00000180  00000-0  29437-4 0  9998,2 52491  53.2206 343.1695 0002777  26.3574 333.7559 15.08837398 33173,6917.888000000001,95.438,541.674,537.832,0.0
52491.0,STARLINK-3908,PAYLOAD,2022-12-08 09:58:33,15.08848149,0.0002916,53.2191,339.0075,24.4382,335.6748,0.00017926,2.566e-05,0.0,0 STARLINK-3908,1 52491U 22049AS  22342.41566624  .00002566  00000-0  17926-3 0  9992,2 52491  53.2191 339.0075 0002916  24.4382 335.6748 15.08848149 33158,6917.855,95.437,541.738,537.703,0.0
52491.0,STARLINK-3908,PAYLOAD,2022-12-09 06:38:34,15.08841678,0.0003061,53.2196,335.1425,34.9009,325.2184,9.2147e-05,1.178e-05,0.0,0 STARLINK-3908,1 52491U 22049AS  22343.27678379  .00001178  00000-0  92147-4 0  9995,2 52491  53.2196 335.1425 0003061  34.9009 325.2184 15.08841678 33444,6917.875,95.437,541.8580000000002,537.623,0.0
52491.0,STARLINK-3908,PAYLOAD,2022-12-10 06:29:22,15.08827153,0.0002921,53.2197,330.6845,23.1841,336.9283,-0.00015606,-2.771e-05,0.0,0 STARLINK-3908,1 52491U 22049AS  22344.27039875 -.00002771  00000-0 -15606-3 0  9994,2 52491  53.2197 330.6845 0002921  23.1841 336.9283 15.08827153 33596,6917.92,95.438,541.805,537.764,0.0
52491.0,STARLINK-3908,PAYLOAD,2022-12-10 09:40:08,15.0882934,0.0003042,53.2192,330.0871,23.6144,336.4987,-0.00012242,-2.236e-05,0.0,0 STARLINK-3908,1 52491U 22049AS  22344.40287601 -.00002236  00000-0 -12242-3 0  9990,2 52491  53.2192 330.0871 0003042  23.6144 336.4987 15.08829340 33451,6917.913000000001,95.438,541.882,537.674,0.0
52491.0,STARLINK-3908,PAYLOAD,2022-12-11 04:44:46,15.08847656,0.0002871,53.2196,326.5192,23.7366,336.3758,0.0007537999999999,0.00011732,0.0,0 STARLINK-3908,1 52491U 22049AS  22345.19775722  .00011732  00000-0  75380-3 0  9994,2 52491  53.2196 326.5192 0002871  23.7366 336.3758 15.08847656 33733,6917.857,95.437,541.7080000000002,537.736,0.0
52491.0,STARLINK-3908,PAYLOAD,2022-12-11 09:30:55,15.08838365,0.0002952,53.2194,325.6281,25.1973,334.9163,0.0004507,6.892e-05,0.0,0 STARLINK-3908,1 52491U 22049AS  22345.39647932  .00006892  00000-0  45070-3 0  9991,2 52491  53.2194 325.6281 0002952  25.1973 334.9163 15.08838365 33764,6917.885,95.438,541.793,537.7080000000002,0.0
52491.0,STARLINK-3908,PAYLOAD,2022-12-12 10:57:05,15.08840474,0.0003175,53.2191,320.8704,24.3128,335.8014,0.00011747,1.581e-05,0.0,0 STARLINK-3908,1 52491U 22049AS  22346.45631860  .00001581  00000-0  11747-3 0  9996,2 52491  53.2191 320.8704 0003175  24.3128 335.8014 15.08840474 33926,6917.879,95.438,541.94,537.548,0.0
52491.0,STARLINK-3908,PAYLOAD,2022-12-13 10:47:52,15.08841419,0.0003104,53.2194,316.4098,25.7266,334.3880000000001,3.8437e-05,3.23e-06,0.0,0 STARLINK-3908,1 52491U 22049AS  22347.44991774  .00000323  00000-0  38437-4 0  9998,2 52491  53.2194 316.4098 0003104  25.7266 334.3880 15.08841419 33910,6917.876,95.437,541.888,537.594,0.0
52491.0,STARLINK-3908,PAYLOAD,2022-12-13 15:34:02,15.08847724,0.0003076,53.2193,315.5178,26.2393,333.8754,0.00015974,2.255e-05,0.0,0 STARLINK-3908,1 52491U 22049AS  22347.64863437  .00002255  00000-0  15974-3 0  9990,2 52491  53.2193 315.5178 0003076  26.2393 333.8754 15.08847724 34104,6917.857,95.437,541.85,537.594,0.0
52491.0,STARLINK-3908,PAYLOAD,2022-12-14 07:27:53,15.08849648,0.0003087,53.2192,312.5443,29.7916,330.3251,0.00017454,2.491e-05,0.0,0 STARLINK-3908,1 52491U 22049AS  22348.31103306  .00002491  00000-0  17454-3 0  9994,2 52491  53.2192 312.5443 0003087  29.7916 330.3251 15.08849648 34040,6917.851,95.437,541.851,537.58,0.0
52491.0,STARLINK-3908,PAYLOAD,2022-12-14 15:24:48,15.08853057,0.0003105,53.2191,311.0578,29.7702,330.3466,0.00019909,2.883e-05,0.0,0 STARLINK-3908,1 52491U 22049AS  22348.64223043  .00002883  00000-0  19909-3 0  9993,2 52491  53.2191 311.0578 0003105  29.7702 330.3466 15.08853057 34098,6917.84,95.437,541.8530000000002,537.557,0.0
52491.0,STARLINK-3908,PAYLOAD,2022-12-15 07:18:40,15.08836164,0.0002948,53.2194,308.0847,26.9631,333.1514,-5.8937e-05,-1.226e-05,0.0,0 STARLINK-3908,1 52491U 22049AS  22349.30463877 -.00001226  00000-0 -58937-4 0  9995,2 52491  53.2194 308.0847 0002948  26.9631 333.1514 15.08836164 34354,6917.892,95.438,541.797,537.7180000000002,0.0
52491.0,STARLINK-3908,PAYLOAD,2022-12-15 08:54:03,15.08834345,0.0003002,53.219,307.7864,25.3674,334.7465,-0.00013624,-2.456e-05,0.0,0 STARLINK-3908,1 52491U 22049AS  22349.37087722 -.00002456  00000-0 -13624-3 0  9992,2 52491  53.2190 307.7864 0003002  25.3674 334.7465 15.08834345 34202,6917.898,95.438,541.839,537.686,0.0
52491.0,STARLINK-3908,PAYLOAD,2022-12-16 00:47:54,15.08849864,0.0002955,53.2184,304.8131,26.402,333.7122,0.00023411,3.44e-05,0.0,0 STARLINK-3908,1 52491U 22049AS  22350.03327226  .00003440  00000-0  23411-3 0  9990,2 52491  53.2184 304.8131 0002955  26.4020 333.7122 15.08849864 34462,6917.85,95.437,541.759,537.6709999999998,0.0
52491.0,STARLINK-3908,PAYLOAD,2022-12-16 07:09:27,15.08844824,0.0003,53.2186,303.6236,27.3574,332.7575,0.0001348,1.858e-05,0.0,0 STARLINK-3908,1 52491U 22049AS  22350.29823543  .00001858  00000-0  13480-3 0  9997,2 52491  53.2186 303.6236 0003000  27.3574 332.7575 15.08844824 34500,6917.866,95.437,541.806,537.655,0.0
52491.0,STARLINK-3908,PAYLOAD,2022-12-16 21:27:56,15.08837028,0.000295,53.2186,300.9474,27.1236,332.9909,4.1679e-05,3.75e-06,0.0,0 STARLINK-3908,1 52491U 22049AS  22350.89439886  .00000375  00000-0  41679-4 0  9991,2 52491  53.2186 300.9474 0002950  27.1236 332.9909 15.08837028 34590,6917.889,95.438,541.795,537.714,0.0
52491.0,STARLINK-3908,PAYLOAD,2022-12-17 07:00:15,15.0883289,0.0002893,53.2199,299.1637,25.3835,334.7299,1.6654e-05,-2.4e-07,0.0,0 STARLINK-3908,1 52491U 22049AS  22351.29184403 -.00000024  00000-0  16654-4 0  9995,2 52491  53.2199 299.1637 0002893  25.3835 334.7299 15.08832890 34498,6917.901999999999,95.438,541.768,537.766,0.0
52491.0,STARLINK-3908,PAYLOAD,2022-12-17 13:21:49,15.08798335,0.0003006,53.2196,297.9746,27.5679,332.5472,0.00029389,4.387e-05,0.0,0 STARLINK-3908,1 52491U 22049AS  22351.55682401  .00004387  00000-0  29389-3 0  9998,2 52491  53.2196 297.9746 0003006  27.5679 332.5472 15.08798335 34695,6918.0080000000025,95.44,541.952,537.793,0.0
52491.0,STARLINK-3908,PAYLOAD,2022-12-18 03:40:15,15.08843344,0.0002987,53.2193,295.2977,20.3183,339.7928,1.2643e-05,-8.7e-07,0.0,0 STARLINK-3908,1 52491U 22049AS  22352.15296278 -.00000087  00000-0  12643-4 0  9998,2 52491  53.2193 295.2977 0002987  20.3183 339.7928 15.08843344 34783,6917.87,95.437,541.802,537.669,0.0
52491.0,STARLINK-3908,PAYLOAD,2022-12-18 06:51:02,15.08843914,0.0002988,53.2194,294.7031,20.9752,339.1362,2.3352e-05,8.3e-07,0.0,0 STARLINK-3908,1 52491U 22049AS  22352.28544272  .00000083  00000-0  23352-4 0  9996,2 52491  53.2194 294.7031 0002988  20.9752 339.1362 15.08843914 34642,6917.868,95.437,541.8,537.6659999999998,0.0
52491.0,STARLINK-3908,PAYLOAD,2022-12-18 13:12:35,15.0883406,0.0002941,53.2197,293.5137,25.1217,334.9917,2.7576e-05,1.5e-06,0.0,0 STARLINK-3908,1 52491U 22049AS  22352.55041053  .00000150  00000-0  27576-4 0  9992,2 52491  53.2197 293.5137 0002941  25.1217 334.9917 15.08834060 34844,6917.899,95.438,541.798,537.729,0.0
52491.0,STARLINK-3908,PAYLOAD,2022-12-19 00:20:18,15.08827363,0.0002895,53.2196,291.4323,24.0017,336.1109,5.8154e-05,6.37e-06,0.0,0 STARLINK-3908,1 52491U 22049AS  22353.01409755  .00000637  00000-0  58154-4 0  9997,2 52491  53.2196 291.4323 0002895  24.0017 336.1109 15.08827363 34914,6917.919,95.438,541.7869999999998,537.781,0.0
52491.0,STARLINK-3908,PAYLOAD,2022-12-19 19:24:54,15.08850695,0.0002876,53.2184,287.8634,25.1637,334.9495,0.00037206,5.64e-05,0.0,0 STARLINK-3908,1 52491U 22049AS  22353.80896601  .00005640  00000-0  37206-3 0  9997,2 52491  53.2184 287.8634 0002876  25.1637 334.9495 15.08850695 34877,6917.848000000001,95.437,541.702,537.7230000000002,0.0
